[{"OBJECT_NAME":"OOV-CUBE (TUBSAT-30)","OBJECT_ID":"2024-128F","EPOCH":"2026-03-04T10:30:09.946368","MEAN_MOTION":15.02202769,"ECCENTRICITY":0.00549615,"INCLINATION":61.9938,"RA_OF_ASC_NODE":230.6838,"ARG_OF_PERICENTER":111.3065,"MEAN_ANOMALY":249.3906,"EPHEMERIS_TYPE":0,"CLASSIFICATION_TYPE":"U","NORAD_CAT_ID":60240,"ELEMENT_SET_NO":999,"REV_AT_EPOCH":9037,"BSTAR":0.00040817128,"MEAN_MOTION_DOT":5.371e-5,"MEAN_MOTION_DDOT":0}]
